233P/La Sagra,e,11.2889,74.8979,27.0261,3.026520,0.1871927,0.41295001,308.4946,04/08.0/2025,2000,g 15.0,4.0
# From MPC182889
234P/LINEAR,e,11.5340,179.5660,357.4378,3.797813,0.1331692,0.25723471,22.1524,04/08.0/2025,2000,g 12.0,4.0
# From MPC182890
235P/LINEAR,e,9.8124,200.1907,352.1251,3.448060,0.1539366,0.42628253,320.2027,04/08.0/2025,2000,g 12.0,4.0
# From MPEC 2024-P23
236P/LINEAR,e,16.3558,245.5688,119.4207,3.724482,0.1371214,0.50916791,8.6638,04/08.0/2025,2000,g 14.0,4.0
# From MPC182890
237P/LINEAR,e,14.0143,245.3561,25.5043,3.516059,0.1494927,0.43298064,103.8092,04/08.0/2025,2000,g 14.5,2.0
# From MPEC 2024-L77
238P/Read,e,1.2638,51.6469,324.2699,3.167361,0.1748469,0.25067619,181.4851,04/08.0/2025,2000,g 14.5,4.0
# From MPEC 2021-F20
239P/LINEAR,e,11.3071,255.9408,220.3748,4.464030,0.1044993,0.63146601,238.0849,04/08.0/2025,2000,g 17.5,2.0
# From MPEC 2024-YC7
240P/NEAT,e,23.5370,74.9142,352.0709,3.860034,0.1299623,0.45033195,326.7315,04/08.0/2025,2000,g 11.0,4.0
# From MPEC 2022-J42
241P/LINEAR,e,21.0947,305.4226,111.6036,4.927393,0.0901111,0.61020334,121.8092,04/08.0/2025,2000,g 13.5,4.0
# From MPC182890
242P/Spahr,e,32.4243,180.2680,244.9501,5.537655,0.0756337,0.28279450,7.9946,04/08.0/2025,2000,g  8.0,4.0
# From MPEC 2022-K19
243P/NEAT,e,7.6442,87.6479,283.6985,3.827111,0.1316429,0.36034258,317.4112,04/08.0/2025,2000,g 12.5,4.0
# From MPEC 2024-L77
244P/Scotti,e,2.2578,354.0086,93.4795,4.904080,0.0907544,0.19986193,78.9600,04/08.0/2025,2000,g  9.0,4.0
# From MPEC 2022-CN4
245P/WISE,e,21.1716,316.8859,316.5049,4.052419,0.1208182,0.45576908,316.8421,04/08.0/2025,2000,g 14.0,4.0
# From MPEC 2024-YC7
246P/NEAT,e,17.5743,74.2448,185.6231,4.281160,0.1112659,0.22477829,176.3762,04/08.0/2025,2000,g 10.5,4.0
# From MPEC 2021-F20
247P/LINEAR,e,13.6581,53.9908,47.4956,3.964118,0.1248775,0.62557299,289.3252,04/08.0/2025,2000,g 16.5,2.0
# From MPC 75730
248P/Gibbs,e,6.3520,207.8067,209.9794,5.981532,0.0673729,0.63926068,349.2253,04/08.0/2025,2000,g 14.0,4.0
# From MPEC 2022-YN2
249P/LINEAR,e,8.3854,239.0425,65.7443,2.765061,0.2143616,0.81935050,13.9990,04/08.0/2025,2000,g 15.5,4.0
# From MPC182890
250P/Larson,e,13.1524,73.3046,45.7120,3.778141,0.1342106,0.39856099,354.7990,04/08.0/2025,2000,g 14.5,4.0
# From MPEC 2024-TD8
251P/LINEAR,e,23.3882,219.3375,31.1947,3.512018,0.1497508,0.50423916,62.8702,04/08.0/2025,2000,g 16.5,2.0
# From MPEC 2021-S45
252P/LINEAR,e,10.4196,190.9060,343.3759,3.051197,0.1849263,0.67102218,252.9709,04/08.0/2025,2000,g 17.5,4.0
# From MPC182890
253P/PANSTARRS,e,4.9442,146.8486,230.8427,3.464498,0.1528423,0.41500048,25.8270,04/08.0/2025,2000,g 14.5,4.0
# From MPC182890
254P/McNaught,e,32.5392,129.1800,219.7346,4.619925,0.0992548,0.31852294,163.9994,04/08.0/2025,2000,g 11.0,4.0
# From NK 2214
255P/Levy,e,13.4053,275.6366,186.0430,2.942309,0.1952863,0.71204565,184.1507,04/08.0/2025,2000,g  9.0,4.0
# From MPEC 2024-L77
256P/LINEAR,e,27.6238,81.3267,124.0718,4.635296,0.0987616,0.41797588,74.8679,04/08.0/2025,2000,g 14.0,2.0
# From MPEC 2023-A50
257P/Catalina,e,20.2161,207.7274,117.7354,3.767774,0.1347649,0.42879872,225.4073,04/08.0/2025,2000,g 11.5,4.0
# From MPEC 2021-U31
258P/PANSTARRS,e,6.7511,126.2360,25.6001,4.389078,0.1071875,0.20948906,188.0883,04/08.0/2025,2000,g 13.0,4.0
# From MPC106349
259P/Garradd,e,15.8982,51.3727,257.4946,2.729321,0.2185859,0.33872400,252.6343,04/08.0/2025,2000,g 15.5,4.0
# From MPEC 2022-O01
260P/McNaught,e,15.0434,349.3082,18.4920,3.623581,0.1428884,0.60881912,290.8453,04/08.0/2025,2000,g 13.5,4.0
# From MPEC 2021-J28
261P/Larson,e,6.0733,291.0506,67.3645,3.489770,0.1511851,0.42283223,320.1817,04/08.0/2025,2000,g 14.0,4.0
# From MPC 82322
262P/McNaught-Russell,e,29.2542,217.8872,171.0699,6.869293,0.0547439,0.81603468,246.3033,04/08.0/2025,2000,g 13.5,4.0
# From MPEC 2024-L77
263P/Gibbs,e,11.5267,105.5039,35.0207,3.040911,0.1858654,0.59401749,148.3467,04/08.0/2025,2000,g 18.0,4.0
# From MPC114608
264P/Larsen,e,25.1720,219.2023,341.1271,4.028401,0.1219004,0.34059876,273.8645,04/08.0/2025,2000,g 13.0,4.0
# From MPC 79870
265P/LINEAR,e,14.3422,342.9253,33.5601,4.260622,0.1120713,0.64680116,170.2578,04/08.0/2025,2000,g 14.5,4.0
# From MPEC 2021-F20
266P/Christensen,e,3.4282,4.9476,97.7810,3.528095,0.1487283,0.34091674,269.5288,04/08.0/2025,2000,g 14.7,4.0
# From MPC114608
267P/LONEOS,e,6.1407,228.5733,114.2069,3.209138,0.1714436,0.61470608,59.6828,04/08.0/2025,2000,g 19.5,4.0
# From MPC182890
268P/Bernardi,e,15.6614,125.6323,0.0167,4.591308,0.1001843,0.47451413,11.0721,04/08.0/2025,2000,g 14.0,4.0
# From MPEC 2023-J29
269P/Jedicke,e,7.0841,241.7675,225.7197,7.058816,0.0525541,0.43346571,201.4831,04/08.0/2025,2000,g 10.0,4.0
# From MPC 88332
270P/Gehrels,e,2.9249,223.0285,209.9175,6.649526,0.0574802,0.47019346,247.5379,04/08.0/2025,2000,g  8.0,4.0
# From MPC 92277
271P/van Houten-Lemmon,e,6.8671,9.2854,36.6075,7.032378,0.0528507,0.39594352,225.7896,04/08.0/2025,2000,g 11.0,4.0
# From MPEC 2023-D41
272P/NEAT,e,18.0819,109.4392,27.8870,4.461957,0.1045721,0.45546980,104.1087,04/08.0/2025,2000,g 16.0,2.0
# From MPC 82723
273P/Pons-Gambart,e,136.3891,320.3866,20.1353,31.93771,0.0054607,0.97451175,0.0000,12/22.1036/2012,2000,g 11.5,4.0
# From MPEC 2024-GJ3
274P/Tombaugh-Tenagra,e,15.8209,81.3178,38.4898,4.378410,0.1075795,0.44022101,117.7896,04/08.0/2025,2000,g 13.0,4.0
# From MPC 81862
275P/Hermann,e,21.2550,348.6872,173.8983,5.794845,0.0706547,0.71370589,319.8663,04/08.0/2025,2000,g 17.0,4.0
# From MPC182890
276P/Vorobjov,e,14.7856,211.3045,199.3040,5.360865,0.0794057,0.27275375,9.3818,04/08.0/2025,2000,g 11.5,4.0
# From MPEC 2021-F20
277P/LINEAR,e,16.7927,276.2603,152.4331,3.853588,0.1302885,0.50642684,203.0347,04/08.0/2025,2000,g 15.1,4.0
# From MPEC 2021-S45
278P/McNaught,e,6.6178,13.4127,239.5023,3.647839,0.1414655,0.44934993,233.9372,04/08.0/2025,2000,g 14.0,4.0
# From MPEC 2024-A43
279P/LaSagra,e,5.0523,346.1039,5.6502,3.568619,0.1462022,0.39938747,105.2954,04/08.0/2025,2000,g 14.0,4.0
# From MPEC 2024-RQ6
280P/Larsen,e,11.7753,131.3777,104.6478,4.524816,0.1024006,0.41680668,62.7297,04/08.0/2025,2000,g 12.5,4.0
# From MPEC 2023-D41
281P/MOSS,e,4.7177,87.1658,26.9799,4.886280,0.0912508,0.17391568,72.4536,04/08.0/2025,2000,g 11.0,4.0
# From MPC133426
282P/,e,5.8135,217.6077,9.1114,4.235600,0.1130659,0.18765031,142.8211,04/08.0/2025,2000,g 13.5,2.0
# From MPEC 2022-K19
283P/Spacewatch,e,14.4676,161.1228,22.1443,4.131925,0.1173479,0.48489549,153.4720,04/08.0/2025,2000,g 16.0,2.0
# From MPEC 2024-D33
284P/McNaught,e,11.8533,144.2650,202.4692,3.678789,0.1396840,0.37435948,182.2295,04/08.0/2025,2000,g 13.0,4.0
# From MPEC 2024-L77
285P/LINEAR,e,25.0332,185.5132,178.3883,4.505517,0.1030593,0.61811530,84.2114,04/08.0/2025,2000,g 15.0,4.0
# From MPEC 2024-LE0
286P/Christensen,e,17.2056,283.5733,24.1813,4.083457,0.1194434,0.42987374,126.8273,04/08.0/2025,2000,g 14.0,4.0
# From MPEC 2025-A40
287P/Christensen,e,16.3269,138.7771,190.1264,4.182747,0.1152157,0.27284586,73.5452,04/08.0/2025,2000,g 13.5,4.0
# From MPC133426
288P/,e,3.2383,83.1055,280.2957,3.050378,0.1850008,0.19966833,209.7834,04/08.0/2025,2000,g 16.0,2.0
# From MPEC 2024-O39
289P/Blanpain,e,5.9003,68.8913,9.8784,3.043931,0.1855888,0.68647773,358.8272,04/08.0/2025,2000,g 19.0,4.0
# From MPC 95214
290P/Jager,e,20.0464,302.6742,181.8525,6.214004,0.0636278,0.62821160,260.3445,04/08.0/2025,2000,g 10.5,4.0
# From MPEC 2024-YC7
291P/NEAT,e,6.3097,237.6611,173.5596,4.534828,0.1020617,0.43391931,71.9509,04/08.0/2025,2000,g 13.0,4.0
# From MPEC 2022-K19
292P/Li,e,24.3225,90.8953,319.6580,6.096157,0.0654817,0.58992131,266.6499,04/08.0/2025,2000,g 12.5,4.0
# From MPEC 2022-L66
293P/Spacewatch,e,9.0612,78.3634,40.9779,3.637804,0.1420513,0.41949980,222.9153,04/08.0/2025,2000,g 14.5,4.0
# From MPC182890
294P/LINEAR,e,17.7422,309.6010,237.5785,3.190964,0.1729105,0.60103306,338.3536,04/08.0/2025,2000,g 15.5,4.0
# From MPEC 2022-K19
295P/LINEAR,e,21.0840,7.3823,73.0352,5.299207,0.0807956,0.61764461,321.9679,04/08.0/2025,2000,g 12.0,4.0
# From MPEC 2021-N06
296P/Garradd,e,25.3803,263.5325,350.1329,3.474794,0.1521635,0.48526958,251.7075,04/08.0/2025,2000,g 14.0,4.0
# From MPC102956
297P/Beshore,e,11.2407,92.1815,142.2769,3.565018,0.1464237,0.28801102,225.4246,04/08.0/2025,2000,g 15.0,4.0
# From MPC114609
298P/Christensen,e,7.8721,52.7877,100.6158,3.588230,0.1450052,0.38687114,242.8628,04/08.0/2025,2000,g 15.0,4.0
# From MPEC 2024-TD8
299P/Catalina-PANSTARRS,e,10.4690,271.5806,323.6260,4.388867,0.1071952,0.28092635,36.7629,04/08.0/2025,2000,g 11.5,4.0
# From MPEC 2023-VM5
300P/Catalina,e,5.6765,95.6217,222.8838,2.696503,0.2225885,0.69200015,162.0423,04/08.0/2025,2000,g 16.0,4.0
# From MPC 89014
301P/LINEAR-NEAT,e,10.3290,351.0641,193.4389,5.751179,0.0714609,0.58617000,278.8742,04/08.0/2025,2000,g 13.0,4.0
# From MPEC 2024-YC7
302P/Lemmon-PANSTARRS,e,6.0356,121.7155,208.6276,4.267554,0.1117984,0.22938775,3.3080,04/08.0/2025,2000,g 12.5,4.0
# From MPC 92278
303P/NEAT,e,7.0162,347.9512,357.0290,5.040037,0.0871071,0.51030043,332.3074,04/08.0/2025,2000,g 13.5,4.0
# From MPEC 2022-K19
304P/Ory,e,2.6057,58.9389,335.2780,3.149743,0.1763159,0.60086502,299.3138,04/08.0/2025,2000,g 16.5,4.0
# From MPC182890
305P/Skiff,e,11.6711,240.1032,147.4138,4.637154,0.0987022,0.69409886,14.0012,04/08.0/2025,2000,g 18.0,4.0
# From MPC 92278
306P/LINEAR,e,8.3028,341.3528,0.8963,3.124481,0.1784585,0.59258193,339.3618,04/08.0/2025,2000,g 19.0,4.0
# From MPC 92278
307P/LINEAR,e,4.4347,158.1187,222.2508,5.787957,0.0707809,0.67506835,265.5661,04/08.0/2025,2000,g 15.0,4.0
# From MPEC 2022-C56
308P/Lagerkvist-Carsenty,e,4.8524,63.0988,333.7560,6.600997,0.0581152,0.36423941,210.1096,04/08.0/2025,2000,g 13.0,2.0
# From MPC182891
309P/LINEAR,e,17.0203,10.1384,49.9160,4.374654,0.1077180,0.61824578,40.3986,04/08.0/2025,2000,g 15.0,4.0
# From MPC182891
310P/Hill,e,13.1200,8.8838,31.5236,4.181272,0.1152767,0.42211899,61.4218,04/08.0/2025,2000,g 13.5,4.0
# From MPEC 2024-A43
